STARLINK-1377           
1 45547U 20025S   23350.51413723  .00000186  00000+0  31351-4 0  9994
2 45547  53.0537 161.5941 0001419  89.1230 270.9922 15.06396767202381
STARLINK-1378           
1 45548U 20025T   23349.76119568  .00000783  00000+0  71469-4 0  9997
2 45548  53.0541 164.4702 0001496  88.1883 271.9277 15.06402519202266
STARLINK-1390           
1 45550U 20025V   23349.80177332  .00000494  00000+0  52089-4 0  9994
2 45550  53.0546 164.5219 0001409  85.0980 275.0170 15.06399445202266
STARLINK-1294           
1 45551U 20025W   23349.69769917  .00001121  00000+0  94163-4 0  9995
2 45551  53.0529 145.2581 0001307  90.5691 269.5448 15.06399419202530
STARLINK-1323           
1 45553U 20025Y   23350.57127050  .00000585  00000+0  58156-4 0  9997
2 45553  53.0537 141.3398 0001314  82.8427 277.2711 15.06396272201377
STARLINK-1325           
1 45554U 20025Z   23349.70043591  .00000529  00000+0  54427-4 0  9993
2 45554  53.0542 145.2332 0001436  83.3277 276.7875 15.06386361202531
STARLINK-1327           
1 45555U 20025AA  23350.59338457  .00000238  00000+0  34872-4 0  9990
2 45555  53.0535 141.2385 0001290  95.8886 264.2250 15.06397375202660
STARLINK-1334           
1 45556U 20025AB  23350.56758372  .00000386  00000+0  44789-4 0  9992
2 45556  53.0544 141.3597 0001297  82.7948 277.3189 15.06399502202668
STARLINK-1336           
1 45557U 20025AC  23350.57495325  .00000460  00000+0  49757-4 0  9993
2 45557  53.0545 141.3151 0001524  98.6140 261.5021 15.06400842202669
STARLINK-1342           
1 45558U 20025AD  23350.60814002 -.00001337  00000+0 -70900-4 0  9995
2 45558  53.0538 141.1740 0001133  83.0407 277.0711 15.06383699202662
STARLINK-1344           
1 45559U 20025AE  23350.57400298  .00000293  00000+0  38530-4 0  9991
2 45559  53.0546 141.2726 0001330  90.6459 269.4682 15.06401332202664
STARLINK-1346           
1 45560U 20025AF  23350.60541715  .00000383  00000+0  44604-4 0  9996
2 45560  53.0540 131.6127 0001365  81.6957 278.4186 15.06399114202808
STARLINK-1354           
1 45562U 20025AH  23350.58601166  .00000214  00000+0  33233-4 0  9991
2 45562  53.0539 141.2705 0001311  91.4589 268.6551 15.06397024202667
STARLINK-1355           
1 45563U 20025AJ  23350.60076038  .00000455  00000+0  49464-4 0  9999
2 45563  53.0540 141.2077 0001259  83.6301 276.4831 15.06394023202662
STARLINK-1356           
1 45564U 20025AK  23350.59707120 -.00000180  00000+0  67873-5 0  9992
2 45564  53.0535 141.2214 0001499  85.7010 274.4150 15.06398788202660
STARLINK-1357           
1 45565U 20025AL  23350.58970011  .00001033  00000+0  88261-4 0  9993
2 45565  53.0539 141.2537 0001266  83.7731 276.3402 15.06392095202669
STARLINK-1358           
1 45566U 20025AM  23350.60444137  .00000406  00000+0  46142-4 0  9997
2 45566  53.0539 141.1881 0001202  94.5599 265.5527 15.06392652202660
STARLINK-1361           
1 45567U 20025AN  23350.54915632 -.00000119  00000+0  10932-4 0  9994
2 45567  53.0545 141.4370 0001250  90.6055 269.5077 15.06391623202662
STARLINK-1363           
1 45568U 20025AP  23349.70140701 -.00001710  00000+0 -95946-4 0  9995
2 45568  53.0540 145.4848 0001345 112.7891 247.3240 15.06398553202521
STARLINK-1366           
1 45569U 20025AQ  23349.75667316 -.00000086  00000+0  13113-4 0  9997
2 45569  53.0532 144.9943 0001182  91.9436 268.1689 15.06401327201931
STARLINK-1376           
1 45570U 20025AR  23350.61181567 -.00000009  00000+0  18321-4 0  9996
2 45570  53.0544 141.1538 0001404  76.8948 283.2198 15.06396459202665
STARLINK-1261           
1 45571U 20025AS  23350.58334491  .00198274  00000+0  77906-3 0  9993
2 45571  53.0388  74.6771 0006236  18.5198 102.1279 15.85824667202998
STARLINK-1320           
1 45572U 20025AT  23350.60766421  .00000191  00000+0  31738-4 0  9993
2 45572  53.0544 126.1788 0001264  96.0204 264.0930 15.06394942202880
STARLINK-1321           
1 45573U 20025AU  23350.59799417  .00000138  00000+0  28174-4 0  9994
2 45573  53.0531 131.2228 0001293  90.8083 269.3054 15.06394103202505
STARLINK-1324           
1 45574U 20025AV  23350.62379657  .00000126  00000+0  27374-4 0  9997
2 45574  53.0543 131.1017 0001256  93.6674 266.4458 15.06402883202826
STARLINK-1328           
1 45576U 20025AX  23350.58324894 -.00000106  00000+0  11794-4 0  9995
2 45576  53.0552 131.2863 0001435  73.4135 286.7012 15.06395487202816
STARLINK-1331           
1 45578U 20025AZ  23350.57587136 -.00001288  00000+0 -67530-4 0  9998
2 45578  53.0540 131.3160 0001920  88.3128 271.8081 15.06404921202817
STARLINK-1332           
1 45579U 20025BA  23350.51691631 -.00000812  00000+0 -35612-4 0  9997
2 45579  53.0564  91.7466 0001266 106.3006 253.8122 15.06392204203357
STARLINK-1333           
1 45580U 20025BB  23350.58232425  .00000393  00000+0  45286-4 0  9998
2 45580  53.0544 141.2845 0001324  91.4749 268.6392 15.06396284202660
STARLINK-1335           
1 45581U 20025BC  23350.58694628 -.00000395  00000+0 -76650-5 0  9990
2 45581  53.0544 131.2670 0001227  76.6928 283.4198 15.06380613202806
STARLINK-1337           
1 45582U 20025BD  23350.60905172 -.00001457  00000+0 -78925-4 0  9999
2 45582  53.0549 131.1718 0001349  94.2244 265.8900 15.06400020202806
STARLINK-1340           
1 45583U 20025BE  23350.59062172  .00000031  00000+0  20985-4 0  9990
2 45583  53.0543 131.2519 0001345  93.0123 267.1020 15.06394127202808
STARLINK-1347           
1 45586U 20025BH  23350.60169033  .00001497  00000+0  11942-3 0  9998
2 45586  53.0549 131.1996 0001355  74.8788 285.2350 15.06391918202790
STARLINK-1349           
1 45587U 20025BJ  23350.57218490  .00001909  00000+0  14706-3 0  9996
2 45587  53.0540 131.3323 0001270  85.2905 274.8229 15.06382885202805
STARLINK-1360           
1 45588U 20025BK  23350.55008122  .00004567  00000+0  32520-3 0  9991
2 45588  53.0547 131.4306 0001453  67.7015 292.4128 15.06411837202797
STARLINK-1364           
1 45589U 20025BL  23350.61273225  .00000278  00000+0  37542-4 0  9992
2 45589  53.0541 131.1526 0001207  97.9042 262.2084 15.06397393202803
STARLINK-1365           
1 45590U 20025BM  23349.76588544  .00000615  00000+0  60201-4 0  9994
2 45590  53.0547 164.9531 0001681  82.5351 277.5829 15.06406666201663
XINGYUN-2 01            
1 45602U 20028A   23350.57426410  .00002643  00000+0  19357-3 0  9993
2 45602  97.4494 352.6033 0012872  96.8434 263.4257 15.04320199197125
XINGYUN-2 02            
1 45603U 20028B   23350.55972634  .00002053  00000+0  15129-3 0  9994
2 45603  97.5224   0.6976 0013684 152.2680 207.9278 15.04339331197120
ULTP                    
1 45605U 20011D   23350.11088433  .00065006  00000+0  64469-3 0  9993
2 45605  51.6354 285.3972 0005802  63.7142 296.4449 15.65157419201498
COSMOS 2546             
1 45608U 20031A   23349.82094922  .00000000  00000+0  00000+0 0  9994
2 45608  63.1298 168.3290 6634196 265.5702  21.9946  2.00629611 26124
XJS G                   
1 45611U 20032A   23350.86830498  .00020671  00000+0  70861-3 0  9993
2 45611  35.0272 150.1012 0003162 164.7464 329.7656 15.29291061199230
XJS H                   
1 45612U 20032B   23350.55311699  .00048023  00000+0  76042-3 0  9995
2 45612  35.0312 113.4258 0007963 142.0363 218.0923 15.52297009199589
HEAD-4                  
1 45624U 20034A   23350.55770919  .00084928  00000+0  81753-3 0  9993
2 45624  97.4345 145.8960 0005183 341.2050  18.9018 15.66262367198177
GAOFEN-9 02             
1 45625U 20034B   23350.45199053  .00010099  00000+0  41750-3 0  9998
2 45625  97.4606 129.7815 0005376  14.8752 345.2642 15.24166154197027
STARLINK-1441           
1 45658U 20035B   23350.60259234 -.00000301  00000+0 -13385-5 0  9992
2 45658  53.0547 121.1982 0001305 105.4708 254.6425 15.06393282196038
STARLINK-1442           
1 45659U 20035C   23350.55469585  .00000407  00000+0  46244-4 0  9993
2 45659  53.0554 121.5775 0001126 107.5944 252.5168 15.06397584196015
STARLINK-1443           
1 45660U 20035D   23350.54731608 -.00000399  00000+0 -78776-5 0  9990
2 45660  53.0541 121.4428 0001265  85.7324 274.3810 15.06386290196029
STARLINK-1444           
1 45661U 20035E   23350.55744055  .00017308  00000+0  11559-2 0  9991
2 45661  53.0543 121.3113 0001225  99.6765 260.4363 15.07103970196023
STARLINK-1445           
1 45662U 20035F   23350.58049570  .00001728  00000+0  13491-3 0  9992
2 45662  53.0546 121.2957 0001025  75.7186 284.3917 15.06392211196029
STARLINK-1446           
1 45663U 20035G   23350.58416643  .00000219  00000+0  33571-4 0  9998
2 45663  53.0554 121.2737 0001314  94.5081 265.6058 15.06397854196025
STARLINK-1448           
1 45665U 20035J   23350.55100756 -.00001891  00000+0 -10812-3 0  9993
2 45665  53.0536 121.4238 0001241  79.9398 280.1730 15.06384505196019
STARLINK-1449           
1 45666U 20035K   23350.52979435  .00015551  00000+0  10238-2 0  9996
2 45666  53.0551 121.2349 0000866 150.6330 209.4708 15.07709974196014
STARLINK-1450           
1 45667U 20035L   23350.55743497 -.00000628  00000+0 -23247-4 0  9994
2 45667  53.0550 121.4246 0001523  71.7333 288.3822 15.06386505196012
STARLINK-1451           
1 45668U 20035M   23350.59059093 -.00000281  00000+0  31374-7 0  9998
2 45668  53.0551 121.2537 0001148  98.5982 261.5137 15.06400526196039
STARLINK-1452           
1 45669U 20035N   23350.57310986  .00000301  00000+0  39128-4 0  9992
2 45669  53.0531 121.3395 0001118  99.7984 260.3132 15.06395948196025
STARLINK-1453           
1 45670U 20035P   23350.56481126 -.00000911  00000+0 -42307-4 0  9990
2 45670  53.0550  91.3667 0001216 111.5014 248.6104 15.06398767196336
STARLINK-1454           
1 45671U 20035Q   23350.57678233  .00000788  00000+0  71756-4 0  9999
2 45671  53.0545 121.3186 0001156  86.2219 273.8903 15.06408048196015
STARLINK-1455           
1 45672U 20035R   23350.52058392 -.00000465  00000+0 -12334-4 0  9994
2 45672  53.0567  91.5646 0001658 131.4915 228.6217 15.06388923196433
